[{"OBJECT_NAME":"CALSPHERE 1","OBJECT_ID":"1964-063C","EPOCH":"2026-03-15T07:49:46.234848","MEAN_MOTION":13.76505656,"ECCENTRICITY":0.00241177,"INCLINATION":90.2164,"RA_OF_ASC_NODE":69.5785,"ARG_OF_PERICENTER":212.5807,"MEAN_ANOMALY":215.0817,"EPHEMERIS_TYPE":0,"CLASSIFICATION_TYPE":"U","NORAD_CAT_ID":900,"ELEMENT_SET_NO":999,"REV_AT_EPOCH":5851,"BSTAR":0.00067704338,"MEAN_MOTION_DOT":6.73e-6,"MEAN_MOTION_DDOT":0},{"OBJECT_NAME":"CALSPHERE 2","OBJECT_ID":"1964-063E","EPOCH":"2026-03-15T05:47:44.482848","MEAN_MOTION":13.52892175,"ECCENTRICITY":0.0019937,"INCLINATION":90.2284,"RA_OF_ASC_NODE":73.5628,"ARG_OF_PERICENTER":135.7518,"MEAN_ANOMALY":242.0314,"EPHEMERIS_TYPE":0,"CLASSIFICATION_TYPE":"U","NORAD_CAT_ID":902,"ELEMENT_SET_NO":999,"REV_AT_EPOCH":84356,"BSTAR":9.1036107e-5,"MEAN_MOTION_DOT":7.0e-7,"MEAN_MOTION_DDOT":0},{"OBJECT_NAME":"LCS 1","OBJECT_ID":"1965-034C","EPOCH":"2026-03-14T20:36:12.896640","MEAN_MOTION":9.89309921,"ECCENTRICITY":0.00132248,"INCLINATION":32.1448,"RA_OF_ASC_NODE":40.9875,"ARG_OF_PERICENTER":148.4809,"MEAN_ANOMALY":211.6483,"EPHEMERIS_TYPE":0,"CLASSIFICATION_TYPE":"U","NORAD_CAT_ID":1361,"ELEMENT_SET_NO":999,"REV_AT_EPOCH":20054,"BSTAR":-1.2144447e-5,"MEAN_MOTION_DOT":8.0e-8,"MEAN_MOTION_DDOT":0},{"OBJECT_NAME":"TEMPSAT 1","OBJECT_ID":"1965-065E","EPOCH":"2026-03-15T03:38:08.874240","MEAN_MOTION":13.3358963,"ECCENTRICITY":0.00706878,"INCLINATION":89.9949,"RA_OF_ASC_NODE":212.5841,"ARG_OF_PERICENTER":151.5073,"MEAN_ANOMALY":35.2882,"EPHEMERIS_TYPE":0,"CLASSIFICATION_TYPE":"U","NORAD_CAT_ID":1512,"ELEMENT_SET_NO":999,"REV_AT_EPOCH":94751,"BSTAR":6.1290633e-5,"MEAN_MOTION_DOT":4.0e-7,"MEAN_MOTION_DDOT":0},{"OBJECT_NAME":"CALSPHERE 4A","OBJECT_ID":"1965-065H","EPOCH":"2026-03-15T04:13:48.945216","MEAN_MOTION":13.36260222,"ECCENTRICITY":0.00697285,"INCLINATION":89.9021,"RA_OF_ASC_NODE":123.4194,"ARG_OF_PERICENTER":10.8023,"MEAN_ANOMALY":50.0132,"EPHEMERIS_TYPE":0,"CLASSIFICATION_TYPE":"U","NORAD_CAT_ID":1520,"ELEMENT_SET_NO":999,"REV_AT_EPOCH":95015,"BSTAR":0.0002025017,"MEAN_MOTION_DOT":1.15e-6,"MEAN_MOTION_DDOT":0},{"OBJECT_NAME":"OPS 5712 (P/L 160)","OBJECT_ID":"1967-053A","EPOCH":"2026-03-15T06:06:23.995296","MEAN_MOTION":14.76291809,"ECCENTRICITY":0.00038667,"INCLINATION":69.9159,"RA_OF_ASC_NODE":268.2827,"ARG_OF_PERICENTER":219.4632,"MEAN_ANOMALY":140.6234,"EPHEMERIS_TYPE":0,"CLASSIFICATION_TYPE":"U","NORAD_CAT_ID":2826,"ELEMENT_SET_NO":999,"REV_AT_EPOCH":5236,"BSTAR":0.0014690426,"MEAN_MOTION_DOT":0.00010138,"MEAN_MOTION_DDOT":0},{"OBJECT_NAME":"OPS 5712 (P/L 153)","OBJECT_ID":"1967-053H","EPOCH":"2026-03-15T00:40:44.960160","MEAN_MOTION":13.96812987,"ECCENTRICITY":0.00093659,"INCLINATION":69.9752,"RA_OF_ASC_NODE":317.129,"ARG_OF_PERICENTER":304.9982,"MEAN_ANOMALY":55.0244,"EPHEMERIS_TYPE":0,"CLASSIFICATION_TYPE":"U","NORAD_CAT_ID":2874,"ELEMENT_SET_NO":999,"REV_AT_EPOCH":99363,"BSTAR":8.5225897e-5,"MEAN_MOTION_DOT":6.5e-7,"MEAN_MOTION_DDOT":0},{"OBJECT_NAME":"RIGIDSPHERE 2 (LCS 4)","OBJECT_ID":"1971-067E","EPOCH":"2026-03-15T07:24:31.225536","MEAN_MOTION":14.37751852,"ECCENTRICITY":0.00595585,"INCLINATION":87.6278,"RA_OF_ASC_NODE":4.8538,"ARG_OF_PERICENTER":182.1486,"MEAN_ANOMALY":177.9467,"EPHEMERIS_TYPE":0,"CLASSIFICATION_TYPE":"U","NORAD_CAT_ID":5398,"ELEMENT_SET_NO":999,"REV_AT_EPOCH":86039,"BSTAR":0.00023206486,"MEAN_MOTION_DOT":7.31e-6,"MEAN_MOTION_DDOT":0},{"OBJECT_NAME":"COSMOS 2493 (SKRL-756 1)","OBJECT_ID":"2013-078A","EPOCH":"2026-03-15T06:41:19.251456","MEAN_MOTION":15.01629536,"ECCENTRICITY":0.00124653,"INCLINATION":82.4168,"RA_OF_ASC_NODE":353.0291,"ARG_OF_PERICENTER":194.3286,"MEAN_ANOMALY":165.7587,"EPHEMERIS_TYPE":0,"CLASSIFICATION_TYPE":"U","NORAD_CAT_ID":39490,"ELEMENT_SET_NO":999,"REV_AT_EPOCH":66386,"BSTAR":0.00026286681,"MEAN_MOTION_DOT":3.441e-5,"MEAN_MOTION_DDOT":0},{"OBJECT_NAME":"COSMOS 2494 (SKRL-756 2)","OBJECT_ID":"2013-078B","EPOCH":"2026-03-15T05:50:48.487200","MEAN_MOTION":15.04264409,"ECCENTRICITY":0.00168527,"INCLINATION":82.4164,"RA_OF_ASC_NODE":342.8441,"ARG_OF_PERICENTER":158.6269,"MEAN_ANOMALY":201.5665,"EPHEMERIS_TYPE":0,"CLASSIFICATION_TYPE":"U","NORAD_CAT_ID":39491,"ELEMENT_SET_NO":999,"REV_AT_EPOCH":66468,"BSTAR":0.00027188026,"MEAN_MOTION_DOT":3.82e-5,"MEAN_MOTION_DDOT":0}]
