CALSPHERE 1             
1 00900U 64063C   26074.32622957  .00000673  00000+0  67704-3 0  9995
2 00900  90.2164  69.5785 0024117 212.5807 215.0817 13.76505656 58510
CALSPHERE 2             
1 00902U 64063E   26074.24148707  .00000070  00000+0  91036-4 0  9991
2 00902  90.2284  73.5628 0019937 135.7518 242.0314 13.52892175843563
LCS 1                   
1 01361U 65034C   26073.85848260  .00000008  00000+0 -12144-4 0  9992
2 01361  32.1448  40.9875 0013224 148.4809 211.6483  9.89309921200540
TEMPSAT 1               
1 01512U 65065E   26074.15149160  .00000040  00000+0  61291-4 0  9993
2 01512  89.9949 212.5841 0070687 151.5073  35.2882 13.33589630947517
CALSPHERE 4A            
1 01520U 65065H   26074.17626094  .00000115  00000+0  20250-3 0  9992
2 01520  89.9021 123.4194 0069728  10.8023  50.0132 13.36260222950157
OPS 5712 (P/L 160)      
1 02826U 67053A   26074.25444439  .00010138  00000+0  14690-2 0  9997
2 02826  69.9159 268.2827 0003866 219.4632 140.6234 14.76291809 52367
OPS 5712 (P/L 153)      
1 02874U 67053H   26074.02829815  .00000065  00000+0  85226-4 0  9993
2 02874  69.9752 317.1290 0009365 304.9982  55.0244 13.96812987993636
RIGIDSPHERE 2 (LCS 4)   
1 05398U 71067E   26074.30869474  .00000731  00000+0  23206-3 0  9992
2 05398  87.6278   4.8538 0059558 182.1486 177.9467 14.37751852860395
COSMOS 2493 (SKRL-756 1)
1 39490U 13078A   26074.27869504  .00003441  00000+0  26287-3 0  9993
2 39490  82.4168 353.0291 0012465 194.3286 165.7587 15.01629536663866
COSMOS 2494 (SKRL-756 2)
1 39491U 13078B   26074.24361675  .00003820  00000+0  27188-3 0  9999
2 39491  82.4164 342.8441 0016852 158.6269 201.5665 15.04264409664688
